FENGYUN 1C DEB          
1 38131U 99025EQC 17344.24018381  .00000748  00000-0  50026-3 0  9992
2 38131  97.8895 154.2617 0131835 160.8728 199.7457 13.99253704228796
